[{"OBJECT_NAME":"STARLINK-5174","OBJECT_ID":"2022-136S","EPOCH":"2026-03-09T22:21:06.260544","MEAN_MOTION":15.08838744,"ECCENTRICITY":0.00015385,"INCLINATION":53.2217,"RA_OF_ASC_NODE":342.8142,"ARG_OF_PERICENTER":100.5799,"MEAN_ANOMALY":259.5367,"EPHEMERIS_TYPE":0,"CLASSIFICATION_TYPE":"U","NORAD_CAT_ID":54067,"ELEMENT_SET_NO":999,"REV_AT_EPOCH":18688,"BSTAR":-8.5622133e-5,"MEAN_MOTION_DOT":-1.65e-5,"MEAN_MOTION_DDOT":0},{"OBJECT_NAME":"CZ-2D DEB","OBJECT_ID":"2017-060C","EPOCH":"2026-03-09T12:36:22.356864","MEAN_MOTION":15.07716497,"ECCENTRICITY":0.0018685,"INCLINATION":98.2453,"RA_OF_ASC_NODE":267.9231,"ARG_OF_PERICENTER":71.2095,"MEAN_ANOMALY":289.1156,"EPHEMERIS_TYPE":0,"CLASSIFICATION_TYPE":"U","NORAD_CAT_ID":44610,"ELEMENT_SET_NO":999,"REV_AT_EPOCH":45422,"BSTAR":0.00057216024,"MEAN_MOTION_DOT":8.702e-5,"MEAN_MOTION_DDOT":0}]
